{"type": "FeatureCollection", "features": [ {"type": "Feature", "properties": {"norad_id": 34529, "name": "IRIDIUM 33 DEB", "group": "iridium-33-debris", "lat": -18.454204822121785, "lon": -148.34639510641222, "alt_km": 759.095887305446, "timestamp": "2025-12-24T09:46:31.389282+00:00", "meta": {"OBJECT_NAME": "IRIDIUM 33 DEB", "OBJECT_ID": "1997-051HW", "EPOCH": "2025-12-23T12:51:13.501152", "MEAN_MOTION": 14.4062425, "ECCENTRICITY": 0.0006028, "INCLINATION": 86.363, "RA_OF_ASC_NODE": 30.809, "ARG_OF_PERICENTER": 146.0687, "MEAN_ANOMALY": 214.0899, "EPHEMERIS_TYPE": 0, "CLASSIFICATION_TYPE": "U", "NORAD_CAT_ID": 34529, "ELEMENT_SET_NO": 999, "REV_AT_EPOCH": 88297, "BSTAR": 0.00011429374, "MEAN_MOTION_DOT": 3.84e-06, "MEAN_MOTION_DDOT": 0}, "tle": {"line1": "1 34529U 97051HW  25357.53557293  .00000384  00000+0  11429-3 0  9990", "line2": "2 34529  86.3630  30.8090 0006028 146.0687 214.0899 14.40624250882974"}}, "geometry": {"type": "Point", "coordinates": [-148.34639510641222, -18.454204822121785]}}, {"type": "Feature", "properties": {"norad_id": 34538, "name": "IRIDIUM 33 DEB", "group": "iridium-33-debris", "lat": 57.965786131091065, "lon": 174.4705022984462, "alt_km": 766.1300429602788, "timestamp": "2025-12-24T09:46:31.389310+00:00", "meta": {"OBJECT_NAME": "IRIDIUM 33 DEB", "OBJECT_ID": "1997-051JF", "EPOCH": "2025-12-24T01:10:25.170816", "MEAN_MOTION": 14.42711069, "ECCENTRICITY": 0.0031948, "INCLINATION": 86.2766, "RA_OF_ASC_NODE": 0.6013, "ARG_OF_PERICENTER": 288.8052, "MEAN_ANOMALY": 132.7783, "EPHEMERIS_TYPE": 0, "CLASSIFICATION_TYPE": "U", "NORAD_CAT_ID": 34538, "ELEMENT_SET_NO": 999, "REV_AT_EPOCH": 87919, "BSTAR": 0.00093145, "MEAN_MOTION_DOT": 3.137e-05, "MEAN_MOTION_DDOT": 0}, "tle": {"line1": "1 34538U 97051JF  25358.04890244  .00003137  00000+0  93145-3 0  9997", "line2": "2 34538  86.2766   0.6013 0031948 288.8052 132.7783 14.42711069879198"}}, "geometry": {"type": "Point", "coordinates": [174.4705022984462, 57.965786131091065]}}, {"type": "Feature", "properties": {"norad_id": 34540, "name": "IRIDIUM 33 DEB", "group": "iridium-33-debris", "lat": 65.93661905516372, "lon": 113.9670848263191, "alt_km": 624.4152195368788, "timestamp": "2025-12-24T09:46:31.389322+00:00", "meta": {"OBJECT_NAME": "IRIDIUM 33 DEB", "OBJECT_ID": "1997-051JH", "EPOCH": "2025-12-24T02:49:33.288960", "MEAN_MOTION": 14.75542343, "ECCENTRICITY": 0.0018147, "INCLINATION": 86.3118, "RA_OF_ASC_NODE": 302.4047, "ARG_OF_PERICENTER": 121.3128, "MEAN_ANOMALY": 255.331, "EPHEMERIS_TYPE": 0, "CLASSIFICATION_TYPE": "U", "NORAD_CAT_ID": 34540, "ELEMENT_SET_NO": 999, "REV_AT_EPOCH": 89189, "BSTAR": 0.0016242, "MEAN_MOTION_DOT": 0.00011122, "MEAN_MOTION_DDOT": 0}, "tle": {"line1": "1 34540U 97051JH  25358.11774640  .00011122  00000+0  16242-2 0  9994", "line2": "2 34540  86.3118 302.4047 0018147 121.3128 255.3310 14.75542343891896"}}, "geometry": {"type": "Point", "coordinates": [113.9670848263191, 65.93661905516372]}}, {"type": "Feature", "properties": {"norad_id": 34648, "name": "IRIDIUM 33 DEB", "group": "iridium-33-debris", "lat": 74.50791371436908, "lon": 84.06675686887009, "alt_km": 965.0477720532781, "timestamp": "2025-12-24T09:46:31.389333+00:00", "meta": {"OBJECT_NAME": "IRIDIUM 33 DEB", "OBJECT_ID": "1997-051JZ", "EPOCH": "2025-12-24T00:45:40.219200", "MEAN_MOTION": 14.11806302, "ECCENTRICITY": 0.0178897, "INCLINATION": 86.3894, "RA_OF_ASC_NODE": 277.386, "ARG_OF_PERICENTER": 263.4073, "MEAN_ANOMALY": 94.6719, "EPHEMERIS_TYPE": 0, "CLASSIFICATION_TYPE": "U", "NORAD_CAT_ID": 34648, "ELEMENT_SET_NO": 999, "REV_AT_EPOCH": 85120, "BSTAR": 0.0062689, "MEAN_MOTION_DOT": 0.0001332, "MEAN_MOTION_DDOT": 0}, "tle": {"line1": "1 34648U 97051JZ  25358.03171550  .00013320  00000+0  62689-2 0  9993", "line2": "2 34648  86.3894 277.3860 0178897 263.4073  94.6719 14.11806302851201"}}, "geometry": {"type": "Point", "coordinates": [84.06675686887009, 74.50791371436908]}}, {"type": "Feature", "properties": {"norad_id": 34651, "name": "IRIDIUM 33 DEB", "group": "iridium-33-debris", "lat": 39.536039868039786, "lon": 138.68943034956612, "alt_km": 863.2070494451782, "timestamp": "2025-12-24T09:46:31.389362+00:00", "meta": {"OBJECT_NAME": "IRIDIUM 33 DEB", "OBJECT_ID": "1997-051KC", "EPOCH": "2025-12-24T02:50:57.420096", "MEAN_MOTION": 14.25993338, "ECCENTRICITY": 0.0142175, "INCLINATION": 86.283, "RA_OF_ASC_NODE": 135.7365, "ARG_OF_PERICENTER": 167.9905, "MEAN_ANOMALY": 192.4738, "EPHEMERIS_TYPE": 0, "CLASSIFICATION_TYPE": "U", "NORAD_CAT_ID": 34651, "ELEMENT_SET_NO": 999, "REV_AT_EPOCH": 86058, "BSTAR": 0.0032089, "MEAN_MOTION_DOT": 8.536e-05, "MEAN_MOTION_DDOT": 0}, "tle": {"line1": "1 34651U 97051KC  25358.11872014  .00008536  00000+0  32089-2 0  9993", "line2": "2 34651  86.2830 135.7365 0142175 167.9905 192.4738 14.25993338860583"}}, "geometry": {"type": "Point", "coordinates": [138.68943034956612, 39.536039868039786]}}, {"type": "Feature", "properties": {"norad_id": 34652, "name": "IRIDIUM 33 DEB", "group": "iridium-33-debris", "lat": 9.734385555932157, "lon": 154.17527338333255, "alt_km": 686.4542607004105, "timestamp": "2025-12-24T09:46:31.389373+00:00", "meta": {"OBJECT_NAME": "IRIDIUM 33 DEB", "OBJECT_ID": "1997-051KD", "EPOCH": "2025-12-23T23:25:38.355168", "MEAN_MOTION": 14.62155088, "ECCENTRICITY": 0.0025453, "INCLINATION": 86.332, "RA_OF_ASC_NODE": 334.9977, "ARG_OF_PERICENTER": 256.9837, "MEAN_ANOMALY": 165.3312, "EPHEMERIS_TYPE": 0, "CLASSIFICATION_TYPE": "U", "NORAD_CAT_ID": 34652, "ELEMENT_SET_NO": 999, "REV_AT_EPOCH": 88648, "BSTAR": 0.00095749, "MEAN_MOTION_DOT": 4.859e-05, "MEAN_MOTION_DDOT": 0}, "tle": {"line1": "1 34652U 97051KD  25357.97613837  .00004859  00000+0  95749-3 0  9990", "line2": "2 34652  86.3320 334.9977 0025453 256.9837 165.3312 14.62155088886480"}}, "geometry": {"type": "Point", "coordinates": [154.17527338333255, 9.734385555932157]}}, {"type": "Feature", "properties": {"norad_id": 34690, "name": "IRIDIUM 33 DEB", "group": "iridium-33-debris", "lat": 79.30682776717694, "lon": -167.68447646372414, "alt_km": 703.9319297201737, "timestamp": "2025-12-24T09:46:31.389384+00:00", "meta": {"OBJECT_NAME": "IRIDIUM 33 DEB", "OBJECT_ID": "1997-051KM", "EPOCH": "2025-12-23T02:05:55.177152", "MEAN_MOTION": 14.55131538, "ECCENTRICITY": 0.00096335, "INCLINATION": 86.3772, "RA_OF_ASC_NODE": 32.4934, "ARG_OF_PERICENTER": 354.9815, "MEAN_ANOMALY": 35.335, "EPHEMERIS_TYPE": 0, "CLASSIFICATION_TYPE": "U", "NORAD_CAT_ID": 34690, "ELEMENT_SET_NO": 999, "REV_AT_EPOCH": 88245, "BSTAR": 0.00039542617, "MEAN_MOTION_DOT": 1.728e-05, "MEAN_MOTION_DDOT": 0}, "tle": {"line1": "1 34690U 97051KM  25357.08744418  .00001728  00000+0  39543-3 0  9996", "line2": "2 34690  86.3772  32.4934 0009633 354.9815  35.3350 14.55131538882450"}}, "geometry": {"type": "Point", "coordinates": [-167.68447646372414, 79.30682776717694]}}, {"type": "Feature", "properties": {"norad_id": 34693, "name": "IRIDIUM 33 DEB", "group": "iridium-33-debris", "lat": 19.883517636328012, "lon": -60.64433704192497, "alt_km": 466.85044460489644, "timestamp": "2025-12-24T09:46:31.389395+00:00", "meta": {"OBJECT_NAME": "IRIDIUM 33 DEB", "OBJECT_ID": "1997-051KQ", "EPOCH": "2025-12-23T19:41:55.330656", "MEAN_MOTION": 15.30604195, "ECCENTRICITY": 0.00103314, "INCLINATION": 86.3059, "RA_OF_ASC_NODE": 298.3092, "ARG_OF_PERICENTER": 33.2484, "MEAN_ANOMALY": 356.9991, "EPHEMERIS_TYPE": 0, "CLASSIFICATION_TYPE": "U", "NORAD_CAT_ID": 34693, "ELEMENT_SET_NO": 999, "REV_AT_EPOCH": 89084, "BSTAR": 0.0045104698, "MEAN_MOTION_DOT": 0.00135771, "MEAN_MOTION_DDOT": 0}, "tle": {"line1": "1 34693U 97051KQ  25357.82077929  .00135771  00000+0  45105-2 0  9993", "line2": "2 34693  86.3059 298.3092 0010331  33.2484 356.9991 15.30604195890848"}}, "geometry": {"type": "Point", "coordinates": [-60.64433704192497, 19.883517636328012]}}, {"type": "Feature", "properties": {"norad_id": 34696, "name": "IRIDIUM 33 DEB", "group": "iridium-33-debris", "lat": -51.30066076083888, "lon": 17.314180186127288, "alt_km": 734.2452300771856, "timestamp": "2025-12-24T09:46:31.389406+00:00", "meta": {"OBJECT_NAME": "IRIDIUM 33 DEB", "OBJECT_ID": "1997-051KT", "EPOCH": "2025-12-23T20:04:25.434336", "MEAN_MOTION": 14.6559156, "ECCENTRICITY": 0.00738952, "INCLINATION": 86.1849, "RA_OF_ASC_NODE": 22.3578, "ARG_OF_PERICENTER": 130.1788, "MEAN_ANOMALY": 48.2218, "EPHEMERIS_TYPE": 0, "CLASSIFICATION_TYPE": "U", "NORAD_CAT_ID": 34696, "ELEMENT_SET_NO": 999, "REV_AT_EPOCH": 86835, "BSTAR": 0.0041353445, "MEAN_MOTION_DOT": 0.00023449, "MEAN_MOTION_DDOT": 0}, "tle": {"line1": "1 34696U 97051KT  25357.83640549  .00023449  00000+0  41353-2 0  9990", "line2": "2 34696  86.1849  22.3578 0073895 130.1788  48.2218 14.65591560868350"}}, "geometry": {"type": "Point", "coordinates": [17.314180186127288, -51.30066076083888]}}, {"type": "Feature", "properties": {"norad_id": 34765, "name": "IRIDIUM 33 DEB", "group": "iridium-33-debris", "lat": -54.871406787077255, "lon": -147.02310848154784, "alt_km": 758.6033889109158, "timestamp": "2025-12-24T09:46:31.389433+00:00", "meta": {"OBJECT_NAME": "IRIDIUM 33 DEB", "OBJECT_ID": "1997-051LJ", "EPOCH": "2025-12-23T02:58:27.844896", "MEAN_MOTION": 14.40490027, "ECCENTRICITY": 0.00166531, "INCLINATION": 86.3383, "RA_OF_ASC_NODE": 28.3053, "ARG_OF_PERICENTER": 176.053, "MEAN_ANOMALY": 247.6854, "EPHEMERIS_TYPE": 0, "CLASSIFICATION_TYPE": "U", "NORAD_CAT_ID": 34765, "ELEMENT_SET_NO": 999, "REV_AT_EPOCH": 87763, "BSTAR": 0.00035770807, "MEAN_MOTION_DOT": 1.159e-05, "MEAN_MOTION_DDOT": 0}, "tle": {"line1": "1 34765U 97051LJ  25357.12393339  .00001159  00000+0  35771-3 0  9993", "line2": "2 34765  86.3383  28.3053 0016653 176.0530 247.6854 14.40490027877630"}}, "geometry": {"type": "Point", "coordinates": [-147.02310848154784, -54.871406787077255]}}]}